NORAD_CAT_ID,OBJECT_NAME,OBJECT_TYPE,EPOCH,MEAN_MOTION,ECCENTRICITY,INCLINATION,RA_OF_ASC_NODE,ARG_OF_PERICENTER,MEAN_ANOMALY,BSTAR,MEAN_MOTION_DOT,MEAN_MOTION_DDOT,TLE_LINE0,TLE_LINE1,TLE_LINE2,SEMIMAJOR_AXIS,PERIOD,APOGEE,PERIGEE,DECAYED
51870.0,STARLINK-3591,PAYLOAD,2022-09-01 14:00:01,15.08837963,0.0001544,53.2171,18.2051,61.41,21.9109,-0.0015307,-0.00024565,0.0,0 STARLINK-3591,1 51870U 22022U   22244.58335648 -.00024565  00000-0 -15307-2 0  9997,2 51870  53.2171  18.2051 0001544  61.4100  21.9109 15.08837963 29154,6917.887,95.438,540.82,538.683,0.0
51870.0,STARLINK-3591,PAYLOAD,2022-09-01 22:00:00,15.08833024,0.0001571,53.217,16.7091,55.2185,39.6218,0.0006996,0.00010862,0.0,0 STARLINK-3591,1 51870U 22022U   22244.91667824  .00010862  00000-0  69960-3 0  9996,2 51870  53.2170  16.7091 0001571  55.2185  39.6218 15.08833024  1302,6917.901999999999,95.438,540.854,538.68,0.0
51870.0,STARLINK-3591,PAYLOAD,2022-09-02 06:00:00,15.08814652,0.0001449,53.2172,15.211,63.4315,43.0026,0.0028965999999999,0.00046081,0.0,0 STARLINK-3591,1 51870U 22022U   22245.25001157  .00046081  00000-0  28966-2 0  9997,2 51870  53.2172  15.2110 0001449  63.4315  43.0026 15.08814652 29256,6917.958000000001,95.439,540.825,538.82,0.0
51870.0,STARLINK-3591,PAYLOAD,2022-09-02 14:00:01,15.08860663,0.0001574,53.2173,13.7161,59.0447,58.9751,-0.0023203,-0.00037047,0.0,0 STARLINK-3591,1 51870U 22022U   22245.58334491 -.00037047  00000-0 -23203-2 0  9996,2 51870  53.2173  13.7161 0001574  59.0447  58.9751 15.08860663  1301,6917.816999999999,95.436,540.771,538.5930000000002,0.0
51870.0,STARLINK-3591,PAYLOAD,2022-09-02 22:00:01,15.08839817,0.0001541999999999,53.2173,12.2198,52.7714,76.9156,-0.0011492,-0.00018531,0.0,0 STARLINK-3591,1 51870U 22022U   22245.91668981 -.00018531  00000-0 -11492-2 0  9991,2 51870  53.2173  12.2198 0001542  52.7714  76.9156 15.08839817  1303,6917.880999999999,95.438,540.813,538.679,0.0
51870.0,STARLINK-3591,PAYLOAD,2022-09-03 14:00:01,15.08845058,0.0001538,53.2163,9.2271,55.4952,97.3018,-0.00095265,-0.0001541999999999,0.0,0 STARLINK-3591,1 51870U 22022U   22246.58334491 -.00015420  00000-0 -95265-3 0  9996,2 51870  53.2163   9.2271 0001538  55.4952  97.3018 15.08845058 29453,6917.865,95.437,540.794,538.6659999999998,0.0
51870.0,STARLINK-3591,PAYLOAD,2022-09-03 22:00:00,15.08858217,0.0001564,53.2157,7.7306,51.8434,112.5521,-8.8905e-05,-1.703e-05,0.0,0 STARLINK-3591,1 51870U 22022U   22246.91667824 -.00001703  00000-0 -88905-4 0  9995,2 51870  53.2157   7.7306 0001564  51.8434 112.5521 15.08858217  1306,6917.825,95.436,540.7719999999998,538.6080000000002,0.0
51870.0,STARLINK-3591,PAYLOAD,2022-09-04 06:00:00,15.08816105,0.0001509,53.2162,6.2328,61.7531,114.2615,0.0028458,0.00045264,0.0,0 STARLINK-3591,1 51870U 22022U   22247.25001157  .00045264  00000-0  28458-2 0  9997,2 51870  53.2162   6.2328 0001509  61.7531 114.2615 15.08816105 29557,6917.953,95.439,540.862,538.775,0.0
51870.0,STARLINK-3591,PAYLOAD,2022-09-04 14:00:01,15.08847986,0.0001659,53.2162,4.7378,56.5119,131.153,-0.0004575,-7.563e-05,0.0,0 STARLINK-3591,1 51870U 22022U   22247.58335648 -.00007563  00000-0 -45750-3 0  9995,2 51870  53.2162   4.7378 0001659  56.5119 131.1530 15.08847986  1303,6917.856,95.437,540.869,538.573,0.0
51870.0,STARLINK-3591,PAYLOAD,2022-09-04 20:00:01,15.08860905,0.0001724,53.216,3.6158,52.5209,53.7928,0.00023915,3.522e-05,0.0,0 STARLINK-3591,1 51870U 22022U   22247.83334491  .00003522  00000-0  23915-3 0  9996,2 51870  53.2160   3.6158 0001724  52.5209  53.7928 15.08860905 29647,6917.816,95.436,540.874,538.489,0.0
51870.0,STARLINK-3591,PAYLOAD,2022-09-05 14:00:01,15.08839962,0.0001511,53.2162,0.2485,52.8413,169.6135,-0.00072314,-0.00011778,0.0,0 STARLINK-3591,1 51870U 22022U   22248.58334491 -.00011778  00000-0 -72314-3 0  9990,2 51870  53.2162   0.2485 0001511  52.8413 169.6135 15.08839962 29757,6917.880999999999,95.438,540.7909999999998,538.7,0.0
51870.0,STARLINK-3591,PAYLOAD,2022-09-05 22:00:00,15.08847162,0.0001531999999999,53.2159,358.7517,51.9802,182.0628,-0.0023584,-0.00037634,0.0,0 STARLINK-3591,1 51870U 22022U   22248.91667824 -.00037634  00000-0 -23584-2 0  9999,2 51870  53.2159 358.7517 0001532  51.9802 182.0628 15.08847162  1303,6917.858,95.437,540.783,538.664,0.0
51870.0,STARLINK-3591,PAYLOAD,2022-09-06 14:00:01,15.08850232,0.0001607,53.216,355.7594,55.7063,201.505,-0.003129,-0.00049756,0.0,0 STARLINK-3591,1 51870U 22022U   22249.58334491 -.00049756  00000-0 -31290-2 0  9995,2 51870  53.2160 355.7594 0001607  55.7063 201.5050 15.08850232  1309,6917.849,95.437,540.826,538.602,0.0
51870.0,STARLINK-3591,PAYLOAD,2022-09-06 22:00:00,15.08846387,0.0001569,53.2157,354.2625,55.4523,213.3441,-0.0042498,-0.00067304,0.0,0 STARLINK-3591,1 51870U 22022U   22249.91667824 -.00067304  00000-0 -42498-2 0  9992,2 51870  53.2157 354.2625 0001569  55.4523 213.3441 15.08846387 29951,6917.861,95.437,540.811,538.64,0.0
51870.0,STARLINK-3591,PAYLOAD,2022-09-07 14:00:01,15.08800528,0.0001579,53.2158,351.2705,54.7834,237.1374,0.00034847,5.256e-05,0.0,0 STARLINK-3591,1 51870U 22022U   22250.58334491  .00005256  00000-0  34847-3 0  9994,2 51870  53.2158 351.2705 0001579  54.7834 237.1374 15.08800528 30055,6918.001,95.44,540.9580000000002,538.774,0.0
51870.0,STARLINK-3591,PAYLOAD,2022-09-07 22:00:00,15.08827298,0.0001517,53.2155,349.7735,53.6278,249.8371,-0.0017297999999999,-0.00027703,0.0,0 STARLINK-3591,1 51870U 22022U   22250.91667824 -.00027703  00000-0 -17298-2 0  9993,2 51870  53.2155 349.7735 0001517  53.6278 249.8371 15.08827298  1305,6917.919,95.438,540.8340000000002,538.735,0.0
51870.0,STARLINK-3591,PAYLOAD,2022-09-08 14:00:01,15.08824821,0.0001619,53.2156,346.7816,53.8093,272.8056,0.00057066,8.802e-05,0.0,0 STARLINK-3591,1 51870U 22022U   22251.58334491  .00008802  00000-0  57066-3 0  9993,2 51870  53.2156 346.7816 0001619  53.8093 272.8056 15.08824821  1308,6917.927,95.439,540.9119999999998,538.672,0.0
51870.0,STARLINK-3591,PAYLOAD,2022-09-08 22:00:00,15.08858186,0.0001554,53.2155,345.2844,52.4871,285.7101,-0.0015737,-0.00025259,0.0,0 STARLINK-3591,1 51870U 22022U   22251.91667824 -.00025259  00000-0 -15737-2 0  9994,2 51870  53.2155 345.2844 0001554  52.4871 285.7101 15.08858186  1304,6917.825,95.436,540.765,538.615,0.0
51870.0,STARLINK-3591,PAYLOAD,2022-09-09 00:00:02,15.08846328,0.0001496999999999,53.2157,344.9098,55.7077,15.4587,0.00010807,1.433e-05,0.0,0 STARLINK-3591,1 51870U 22022U   22252.00002315  .00001433  00000-0  10807-3 0  9993,2 51870  53.2157 344.9098 0001497  55.7077  15.4587 15.08846328 30272,6917.861,95.437,540.762,538.69,0.0
51870.0,STARLINK-3591,PAYLOAD,2022-09-09 14:00:01,15.08872116,0.0001658,53.2157,342.2926,51.2527,310.1695,-0.001726,-0.00027677,0.0,0 STARLINK-3591,1 51870U 22022U   22252.58334491 -.00027677  00000-0 -17260-2 0  9998,2 51870  53.2157 342.2926 0001658  51.2527 310.1695 15.08872116  1315,6917.781999999997,95.436,540.794,538.5,0.0
51870.0,STARLINK-3591,PAYLOAD,2022-09-09 22:00:00,15.08876698,0.0001585,53.2158,340.7949,49.5344,323.5076,-0.004572,-0.00072393,0.0,0 STARLINK-3591,1 51870U 22022U   22252.91667824 -.00072393  00000-0 -45720-2 0  9991,2 51870  53.2158 340.7949 0001585  49.5344 323.5076 15.08876698  1309,6917.768,95.435,540.73,538.5369999999998,0.0
51870.0,STARLINK-3591,PAYLOAD,2022-09-10 06:00:02,15.08829901,0.000158,53.2159,339.2978,57.0406,327.6774,0.0021145,0.00033515,0.0,0 STARLINK-3591,1 51870U 22022U   22253.25002315  .00033515  00000-0  21145-2 0  9993,2 51870  53.2159 339.2978 0001580  57.0406 327.6774 15.08829901 30467,6917.911,95.438,540.869,538.683,0.0
51870.0,STARLINK-3591,PAYLOAD,2022-09-10 14:00:01,15.088383,0.0001735,53.2159,337.8034,50.488,345.759,0.00040784,6.208e-05,0.0,0 STARLINK-3591,1 51870U 22022U   22253.58334491  .00006208  00000-0  40784-3 0  9992,2 51870  53.2159 337.8034 0001735  50.4880 345.7590 15.08838300  1300,6917.886,95.438,540.951,538.55,0.0
51870.0,STARLINK-3591,PAYLOAD,2022-09-10 22:00:00,15.08853114,0.0001606,53.2159,336.3059,49.6425,358.2011,-0.0028718,-0.00045719,0.0,0 STARLINK-3591,1 51870U 22022U   22253.91667824 -.00045719  00000-0 -28718-2 0  9992,2 51870  53.2159 336.3059 0001606  49.6425 358.2011 15.08853114 30560,6917.84,95.437,540.816,538.594,0.0
51870.0,STARLINK-3591,PAYLOAD,2022-09-11 06:00:00,15.08838669,0.0001546,53.2161,334.8089,53.9196,5.5204,0.0015387999999999,0.00024286,0.0,0 STARLINK-3591,1 51870U 22022U   22254.25001157  .00024286  00000-0  15388-2 0  9994,2 51870  53.2161 334.8089 0001546  53.9196   5.5204 15.08838669 30615,6917.884,95.438,540.819,538.68,0.0
51870.0,STARLINK-3591,PAYLOAD,2022-09-11 14:00:01,15.08852046,0.0001686999999999,53.216,333.3143,46.9764,24.0735,-9.2082e-05,-1.754e-05,0.0,0 STARLINK-3591,1 51870U 22022U   22254.58334491 -.00001754  00000-0 -92082-4 0  9995,2 51870  53.2160 333.3143 0001687  46.9764  24.0735 15.08852046  1302,6917.844,95.437,540.876,538.5419999999998,0.0
51870.0,STARLINK-3591,PAYLOAD,2022-09-11 22:00:00,15.08863148,0.0001574,53.216,331.8166,48.0379,34.6221,-0.0043058,-0.0006821,0.0,0 STARLINK-3591,1 51870U 22022U   22254.91667824 -.00068210  00000-0 -43058-2 0  9998,2 51870  53.2160 331.8166 0001574  48.0379  34.6221 15.08863148  1302,6917.81,95.436,540.763,538.586,0.0
51870.0,STARLINK-3591,PAYLOAD,2022-09-12 14:00:01,15.08820424,0.0001737,53.2159,328.825,47.2089,58.6322,0.0021119,0.00033465,0.0,0 STARLINK-3591,1 51870U 22022U   22255.58334491  .00033465  00000-0  21119-2 0  9999,2 51870  53.2159 328.8250 0001737  47.2089  58.6322 15.08820424 30816,6917.94,95.439,541.007,538.604,0.0
51870.0,STARLINK-3591,PAYLOAD,2022-09-12 22:00:00,15.08860479,0.0001658,53.2157,327.3273,51.0839,66.3495,-0.0029081999999999,-0.00046301,0.0,0 STARLINK-3591,1 51870U 22022U   22255.91667824 -.00046301  00000-0 -29082-2 0  9997,2 51870  53.2157 327.3273 0001658  51.0839  66.3495 15.08860479  1304,6917.818,95.436,540.83,538.536,0.0
